ONEWEB-0713             
1 55175U 23004AM  26049.24749127 -.00000675  00000+0 -19408-2 0  9992
2 55175  87.8836  44.7223 0002111  78.4180 281.7185 13.11417460150231
ONEWEB-0715             
1 55176U 23004AN  26049.01352227 -.00000511  00000+0 -14772-2 0  9997
2 55176  87.8832  44.7691 0002491  96.0281 264.1131 13.11417674150240
ONEWEB-0716             
1 55177U 23004AP  26048.97724512 -.00000024  00000+0 -93985-4 0  9996
2 55177  87.9115  29.5454 0001693  86.6003 273.5322 13.17647609151880
ONEWEB-0717             
1 55178U 23004AQ  26048.88442962  .00000074  00000+0  15674-3 0  9994
2 55178  87.9125  29.5417 0002500  73.7997 286.3410 13.17648342151928
ONEWEB-0719             
1 55179U 23004AR  26048.97050654  .00000027  00000+0  37260-4 0  9992
2 55179  87.9122  29.5063 0001726  81.3655 278.7672 13.17649840151882
ONEWEB-0530             
1 55796U 23029A   26049.22804141  .00000085  00000+0  17682-3 0  9990
2 55796  87.9194 298.2267 0001839  64.9290 295.2034 13.20771151145440
ONEWEB-0534             
1 55797U 23029B   26049.21541662  .00000045  00000+0  78933-4 0  9999
2 55797  87.9195 298.2280 0001513  79.9430 280.1874 13.20770695145445
ONEWEB-0556             
1 55798U 23029C   26049.22172546  .00000031  00000+0  43545-4 0  9998
2 55798  87.9196 298.2292 0000896  55.0333 305.0884 13.20770201145441
ONEWEB-0562             
1 55799U 23029D   26049.20910424  .00000065  00000+0  12811-3 0  9990
2 55799  87.9194 298.2118 0001780  49.9511 310.1778 13.20770936145444
ONEWEB-0563             
1 55800U 23029E   26049.20278963  .00000013  00000+0 -29600-6 0  9999
2 55800  87.9197 298.2431 0001392  82.5542 277.5749 13.20771476145437
ONEWEB-0564             
1 55801U 23029F   26049.19647933  .00000155  00000+0  34989-3 0  9994
2 55801  87.9195 298.2171 0001722  67.1473 292.9842 13.20771326145446
ONEWEB-0638             
1 55802U 23029G   26049.19262459 -.00000090  00000+0 -27691-3 0  9993
2 55802  87.9009 313.4946 0001299  64.2307 295.8957 13.14498458143761
ONEWEB-0639             
1 55803U 23029H   26049.22699567  .00000007  00000+0 -14010-4 0  9991
2 55803  87.9251 328.6659 0001468 116.5476 243.5808 13.19725366143217
ONEWEB-0640             
1 55804U 23029J   26049.20212116  .00000030  00000+0  46076-4 0  9993
2 55804  87.9015 313.4828 0000932  67.9791 292.1438 13.14505012143780
ONEWEB-0641             
1 55805U 23029K   26049.22225093  .00000084  00000+0  17859-3 0  9999
2 55805  87.9254 328.6525 0001701  83.9177 276.2149 13.19724159143220
ONEWEB-0642             
1 55806U 23029L   26049.21751669  .00000021  00000+0  19086-4 0  9998
2 55806  87.9247 328.6693 0001716 107.3594 252.7727 13.19724442143214
ONEWEB-0643             
1 55807U 23029M   26049.24811040  .00000217  00000+0  55208-3 0  9994
2 55807  87.9012 313.4610 0001864 101.6485 258.4854 13.14504424143761
