[{"OBJECT_NAME":"ONEWEB-0713","OBJECT_ID":"2023-004AM","EPOCH":"2026-02-18T05:56:23.245728","MEAN_MOTION":13.1141746,"ECCENTRICITY":0.00021116,"INCLINATION":87.8836,"RA_OF_ASC_NODE":44.7223,"ARG_OF_PERICENTER":78.418,"MEAN_ANOMALY":281.7185,"EPHEMERIS_TYPE":0,"CLASSIFICATION_TYPE":"U","NORAD_CAT_ID":55175,"ELEMENT_SET_NO":999,"REV_AT_EPOCH":15023,"BSTAR":-0.001940807,"MEAN_MOTION_DOT":-6.75e-6,"MEAN_MOTION_DDOT":0},{"OBJECT_NAME":"ONEWEB-0715","OBJECT_ID":"2023-004AN","EPOCH":"2026-02-18T00:19:28.324128","MEAN_MOTION":13.11417674,"ECCENTRICITY":0.0002491,"INCLINATION":87.8832,"RA_OF_ASC_NODE":44.7691,"ARG_OF_PERICENTER":96.0281,"MEAN_ANOMALY":264.1131,"EPHEMERIS_TYPE":0,"CLASSIFICATION_TYPE":"U","NORAD_CAT_ID":55176,"ELEMENT_SET_NO":999,"REV_AT_EPOCH":15024,"BSTAR":-0.0014771532,"MEAN_MOTION_DOT":-5.11e-6,"MEAN_MOTION_DDOT":0},{"OBJECT_NAME":"ONEWEB-0716","OBJECT_ID":"2023-004AP","EPOCH":"2026-02-17T23:27:13.978368","MEAN_MOTION":13.17647609,"ECCENTRICITY":0.0001693,"INCLINATION":87.9115,"RA_OF_ASC_NODE":29.5454,"ARG_OF_PERICENTER":86.6003,"MEAN_ANOMALY":273.5322,"EPHEMERIS_TYPE":0,"CLASSIFICATION_TYPE":"U","NORAD_CAT_ID":55177,"ELEMENT_SET_NO":999,"REV_AT_EPOCH":15188,"BSTAR":-9.3985e-5,"MEAN_MOTION_DOT":-2.4e-7,"MEAN_MOTION_DDOT":0},{"OBJECT_NAME":"ONEWEB-0717","OBJECT_ID":"2023-004AQ","EPOCH":"2026-02-17T21:13:34.719168","MEAN_MOTION":13.17648342,"ECCENTRICITY":0.00025,"INCLINATION":87.9125,"RA_OF_ASC_NODE":29.5417,"ARG_OF_PERICENTER":73.7997,"MEAN_ANOMALY":286.341,"EPHEMERIS_TYPE":0,"CLASSIFICATION_TYPE":"U","NORAD_CAT_ID":55178,"ELEMENT_SET_NO":999,"REV_AT_EPOCH":15192,"BSTAR":0.00015674,"MEAN_MOTION_DOT":7.4e-7,"MEAN_MOTION_DDOT":0},{"OBJECT_NAME":"ONEWEB-0719","OBJECT_ID":"2023-004AR","EPOCH":"2026-02-17T23:17:31.765056","MEAN_MOTION":13.1764984,"ECCENTRICITY":0.0001726,"INCLINATION":87.9122,"RA_OF_ASC_NODE":29.5063,"ARG_OF_PERICENTER":81.3655,"MEAN_ANOMALY":278.7672,"EPHEMERIS_TYPE":0,"CLASSIFICATION_TYPE":"U","NORAD_CAT_ID":55179,"ELEMENT_SET_NO":999,"REV_AT_EPOCH":15188,"BSTAR":3.726e-5,"MEAN_MOTION_DOT":2.7e-7,"MEAN_MOTION_DDOT":0},{"OBJECT_NAME":"ONEWEB-0530","OBJECT_ID":"2023-029A","EPOCH":"2026-02-18T05:28:22.777824","MEAN_MOTION":13.20771151,"ECCENTRICITY":0.00018398,"INCLINATION":87.9194,"RA_OF_ASC_NODE":298.2267,"ARG_OF_PERICENTER":64.929,"MEAN_ANOMALY":295.2034,"EPHEMERIS_TYPE":0,"CLASSIFICATION_TYPE":"U","NORAD_CAT_ID":55796,"ELEMENT_SET_NO":999,"REV_AT_EPOCH":14544,"BSTAR":0.00017682365,"MEAN_MOTION_DOT":8.5e-7,"MEAN_MOTION_DDOT":0},{"OBJECT_NAME":"ONEWEB-0534","OBJECT_ID":"2023-029B","EPOCH":"2026-02-18T05:10:11.995968","MEAN_MOTION":13.20770695,"ECCENTRICITY":0.00015131,"INCLINATION":87.9195,"RA_OF_ASC_NODE":298.228,"ARG_OF_PERICENTER":79.943,"MEAN_ANOMALY":280.1874,"EPHEMERIS_TYPE":0,"CLASSIFICATION_TYPE":"U","NORAD_CAT_ID":55797,"ELEMENT_SET_NO":999,"REV_AT_EPOCH":14544,"BSTAR":7.8932812e-5,"MEAN_MOTION_DOT":4.5e-7,"MEAN_MOTION_DDOT":0},{"OBJECT_NAME":"ONEWEB-0556","OBJECT_ID":"2023-029C","EPOCH":"2026-02-18T05:19:17.079744","MEAN_MOTION":13.20770201,"ECCENTRICITY":8.966e-5,"INCLINATION":87.9196,"RA_OF_ASC_NODE":298.2292,"ARG_OF_PERICENTER":55.0333,"MEAN_ANOMALY":305.0884,"EPHEMERIS_TYPE":0,"CLASSIFICATION_TYPE":"U","NORAD_CAT_ID":55798,"ELEMENT_SET_NO":999,"REV_AT_EPOCH":14544,"BSTAR":4.3545395e-5,"MEAN_MOTION_DOT":3.1e-7,"MEAN_MOTION_DDOT":0},{"OBJECT_NAME":"ONEWEB-0562","OBJECT_ID":"2023-029D","EPOCH":"2026-02-18T05:01:06.606336","MEAN_MOTION":13.20770936,"ECCENTRICITY":0.00017808,"INCLINATION":87.9194,"RA_OF_ASC_NODE":298.2118,"ARG_OF_PERICENTER":49.9511,"MEAN_ANOMALY":310.1778,"EPHEMERIS_TYPE":0,"CLASSIFICATION_TYPE":"U","NORAD_CAT_ID":55799,"ELEMENT_SET_NO":999,"REV_AT_EPOCH":14544,"BSTAR":0.00012810719,"MEAN_MOTION_DOT":6.5e-7,"MEAN_MOTION_DDOT":0},{"OBJECT_NAME":"ONEWEB-0563","OBJECT_ID":"2023-029E","EPOCH":"2026-02-18T04:52:01.024032","MEAN_MOTION":13.20771476,"ECCENTRICITY":0.00013927,"INCLINATION":87.9197,"RA_OF_ASC_NODE":298.2431,"ARG_OF_PERICENTER":82.5542,"MEAN_ANOMALY":277.5749,"EPHEMERIS_TYPE":0,"CLASSIFICATION_TYPE":"U","NORAD_CAT_ID":55800,"ELEMENT_SET_NO":999,"REV_AT_EPOCH":14543,"BSTAR":-2.95999e-7,"MEAN_MOTION_DOT":1.3e-7,"MEAN_MOTION_DDOT":0},{"OBJECT_NAME":"ONEWEB-0564","OBJECT_ID":"2023-029F","EPOCH":"2026-02-18T04:42:55.814112","MEAN_MOTION":13.20771326,"ECCENTRICITY":0.0001722,"INCLINATION":87.9195,"RA_OF_ASC_NODE":298.2171,"ARG_OF_PERICENTER":67.1473,"MEAN_ANOMALY":292.9842,"EPHEMERIS_TYPE":0,"CLASSIFICATION_TYPE":"U","NORAD_CAT_ID":55801,"ELEMENT_SET_NO":999,"REV_AT_EPOCH":14544,"BSTAR":0.0003498851,"MEAN_MOTION_DOT":1.55e-6,"MEAN_MOTION_DDOT":0},{"OBJECT_NAME":"ONEWEB-0638","OBJECT_ID":"2023-029G","EPOCH":"2026-02-18T04:37:22.764576","MEAN_MOTION":13.14498458,"ECCENTRICITY":0.00012999,"INCLINATION":87.9009,"RA_OF_ASC_NODE":313.4946,"ARG_OF_PERICENTER":64.2307,"MEAN_ANOMALY":295.8957,"EPHEMERIS_TYPE":0,"CLASSIFICATION_TYPE":"U","NORAD_CAT_ID":55802,"ELEMENT_SET_NO":999,"REV_AT_EPOCH":14376,"BSTAR":-0.00027690818,"MEAN_MOTION_DOT":-9.0e-7,"MEAN_MOTION_DDOT":0},{"OBJECT_NAME":"ONEWEB-0639","OBJECT_ID":"2023-029H","EPOCH":"2026-02-18T05:26:52.425888","MEAN_MOTION":13.19725366,"ECCENTRICITY":0.00014682,"INCLINATION":87.9251,"RA_OF_ASC_NODE":328.6659,"ARG_OF_PERICENTER":116.5476,"MEAN_ANOMALY":243.5808,"EPHEMERIS_TYPE":0,"CLASSIFICATION_TYPE":"U","NORAD_CAT_ID":55803,"ELEMENT_SET_NO":999,"REV_AT_EPOCH":14321,"BSTAR":-1.4009703e-5,"MEAN_MOTION_DOT":7.0e-8,"MEAN_MOTION_DDOT":0},{"OBJECT_NAME":"ONEWEB-0640","OBJECT_ID":"2023-029J","EPOCH":"2026-02-18T04:51:03.268224","MEAN_MOTION":13.14505012,"ECCENTRICITY":9.328e-5,"INCLINATION":87.9015,"RA_OF_ASC_NODE":313.4828,"ARG_OF_PERICENTER":67.9791,"MEAN_ANOMALY":292.1438,"EPHEMERIS_TYPE":0,"CLASSIFICATION_TYPE":"U","NORAD_CAT_ID":55804,"ELEMENT_SET_NO":999,"REV_AT_EPOCH":14378,"BSTAR":4.6076035e-5,"MEAN_MOTION_DOT":3.0e-7,"MEAN_MOTION_DDOT":0},{"OBJECT_NAME":"ONEWEB-0641","OBJECT_ID":"2023-029K","EPOCH":"2026-02-18T05:20:02.480352","MEAN_MOTION":13.19724159,"ECCENTRICITY":0.0001701,"INCLINATION":87.9254,"RA_OF_ASC_NODE":328.6525,"ARG_OF_PERICENTER":83.9177,"MEAN_ANOMALY":276.2149,"EPHEMERIS_TYPE":0,"CLASSIFICATION_TYPE":"U","NORAD_CAT_ID":55805,"ELEMENT_SET_NO":999,"REV_AT_EPOCH":14322,"BSTAR":0.00017858875,"MEAN_MOTION_DOT":8.4e-7,"MEAN_MOTION_DDOT":0},{"OBJECT_NAME":"ONEWEB-0642","OBJECT_ID":"2023-029L","EPOCH":"2026-02-18T05:13:13.442016","MEAN_MOTION":13.19724442,"ECCENTRICITY":0.0001716,"INCLINATION":87.9247,"RA_OF_ASC_NODE":328.6693,"ARG_OF_PERICENTER":107.3594,"MEAN_ANOMALY":252.7727,"EPHEMERIS_TYPE":0,"CLASSIFICATION_TYPE":"U","NORAD_CAT_ID":55806,"ELEMENT_SET_NO":999,"REV_AT_EPOCH":14321,"BSTAR":1.908564e-5,"MEAN_MOTION_DOT":2.1e-7,"MEAN_MOTION_DDOT":0},{"OBJECT_NAME":"ONEWEB-0643","OBJECT_ID":"2023-029M","EPOCH":"2026-02-18T05:57:16.738560","MEAN_MOTION":13.14504424,"ECCENTRICITY":0.00018645,"INCLINATION":87.9012,"RA_OF_ASC_NODE":313.461,"ARG_OF_PERICENTER":101.6485,"MEAN_ANOMALY":258.4854,"EPHEMERIS_TYPE":0,"CLASSIFICATION_TYPE":"U","NORAD_CAT_ID":55807,"ELEMENT_SET_NO":999,"REV_AT_EPOCH":14376,"BSTAR":0.000552082,"MEAN_MOTION_DOT":2.17e-6,"MEAN_MOTION_DDOT":0}]
